LUCH-5V                 
1 39727U 14023A   26062.96180330 -.00000279  00000+0  00000+0 0  9991
2 39727   4.8738  70.7784 0002989 277.5022 254.4156  1.00271874 43303
NAVSTAR 70 (USA 251)    
1 39741U 14026A   26062.76125815 -.00000097  00000+0  00000+0 0  9993
2 39741  56.5468 335.6247 0039878 324.4781  35.2898  2.00568709 86426
COSMOS 2500 [GLONASS-M] 
1 40001U 14032A   26062.45675065 -.00000048  00000+0  00000+0 0  9990
2 40001  65.2935 317.2872 0005202 202.8793 157.1573  2.13105742 91203
NAVSTAR 71 (USA 256)    
1 40105U 14045A   26062.35011831  .00000016  00000+0  00000+0 0  9997
2 40105  55.2804  92.6803 0031529 120.5063 239.8766  2.00551390 83952
GSAT0201 (GALILEO 5)    
1 40128U 14050A   26062.23675925 -.00000027  00000+0  00000+0 0  9998
2 40128  48.9889 277.7718 1657553 175.2875 186.5034  1.85520013 76352
GSAT0202 (GALILEO 6)    
1 40129U 14050B   26061.95370111 -.00000024  00000+0  00000+0 0  9993
2 40129  49.0058 276.8679 1658464 176.0142 185.5046  1.85520711 78514
IRNSS-1C                
1 40269U 14061A   26062.66187685 -.00000172  00000+0  00000+0 0  9995
2 40269   6.2467  90.9894 0019809 356.5662  35.1298  1.00269944 41634
NAVSTAR 72 (USA 258)    
1 40294U 14068A   26062.22833176 -.00000074  00000+0  00000+0 0  9996
2 40294  56.9187  35.0371 0062747  68.0438 292.6092  2.00569742 83085
COSMOS 2501 [GLONASS-K] 
1 40315U 14075A   26060.84023701 -.00000015  00000+0  00000+0 0  9994
2 40315  63.6170 194.0851 0020735 205.7160 154.1408  2.13101099 87569
NAVSTAR 73 (USA 260)    
1 40534U 15013A   26062.35961980 -.00000013  00000+0  00000+0 0  9996
2 40534  53.1865 208.5527 0108741  39.7842 320.9512  2.00557636 79708
GSAT0203 (GALILEO 7)    
1 40544U 15017A   26058.52158611 -.00000103  00000+0  00000+0 0  9994
2 40544  56.8234 344.5881 0005161 295.0116  64.9415  1.70475495 67337
GSAT0204 (GALILEO 8)    
1 40545U 15017B   26058.19060141 -.00000102  00000+0  00000+0 0  9997
2 40545  56.8295 344.6151 0004389 286.3298  73.6287  1.70475370 30371
BEIDOU-3S IGSO-1S       
1 40549U 15019A   26062.60351340 -.00000161  00000+0  00000+0 0  9993
2 40549  49.3919 296.7335 0035838 190.4162 347.9683  1.00273864 40010
NAVSTAR 74 (USA 262)    
1 40730U 15033A   26062.52018166 -.00000008  00000+0  00000+0 0  9998
2 40730  54.0652 271.4414 0114474  28.9620 331.7017  2.00561598 77876
BEIDOU-3S M2S           
1 40748U 15037A   26062.54429301 -.00000057  00000+0  00000+0 0  9994
2 40748  54.9636 305.6850 0008875 278.3355  81.6239  1.86231824 72155
BEIDOU-3S M1S           
1 40749U 15037B   26061.69084880 -.00000053  00000+0  00000+0 0  9995
2 40749  54.9610 305.7025 0004647  29.9008 330.1863  1.86253746 72142
GSAT0205 (GALILEO 9)    
1 40889U 15045A   26043.95434207  .00000078  00000+0  00000+0 0  9996
2 40889  53.6403 225.6057 0359599  59.9658 303.5577  1.67410800 64211
